PROBA-1                 
1 26958U 01049B   26063.17990588  .00002318  00000+0  15390-3 0  9992
2 26958  97.9622  68.0676 0057005 117.1507 243.5548 15.06984992327803
CUTE-1 (CO-55)          
1 27844U 03031E   26063.01394075  .00000483  00000+0  22828-3 0  9997
2 27844  98.6778  72.8832 0010497 127.2783 232.9354 14.24260748176700
CUBESAT XI-IV (CO-57)   
1 27848U 03031J   26062.94998598  .00000409  00000+0  19861-3 0  9993
2 27848  98.6808  72.6171 0010137 144.0340 216.1522 14.23556668176405
APRIZESAT 4             
1 35684U 09041D   26063.12478337  .00001227  00000+0  15327-3 0  9994
2 35684  98.1498 136.3326 0042279 303.2843  56.4324 14.83696311895781
APRIZESAT 3             
1 35686U 09041F   26062.82485453  .00003314  00000+0  29057-3 0  9993
2 35686  98.1886 211.1211 0063231  55.8967 304.8230 14.95871944900623
PROBA-2                 
1 36037U 09059B   26063.01148315  .00000448  00000+0  11492-3 0  9997
2 36037  98.2426 247.8240 0012116 243.1294 116.8665 14.54786602866236
APRIZESAT 5             
1 37792U 11044E   26062.80953034  .00002074  00000+0  27015-3 0  9996
2 37792  98.2402 352.9200 0052165 343.6100  16.3423 14.80835068783192
APRIZESAT 6             
1 37793U 11044F   26062.99479376  .00001343  00000+0  19660-3 0  9994
2 37793  98.2423 331.3296 0044495  63.2498   1.7457 14.76737963781625
PROBA-V                 
1 39159U 13021A   26062.83173919  .00000116  00000+0  68828-4 0  9994
2 39159  98.3497  46.6905 0005381  83.2679 276.9113 14.23571895666126
APRIZESAT 7             
1 39416U 13066A   26063.08896552  .00002331  00000+0  23729-3 0  9993
2 39416  97.7589  17.9164 0035383 197.5028 162.4974 14.91260891665564
APRIZESAT 8             
1 39425U 13066K   26063.07099499  .00001960  00000+0  21908-3 0  9991
2 39425  97.8111  12.0950 0044599 272.1012  87.5097 14.87404319664042
BUGSAT-1 (TITA)         
1 40014U 14033E   26063.22048410  .00006451  00000+0  35167-3 0  9998
2 40014  98.0446 149.7342 0029079 176.6934 183.4494 15.14409590639947
SAUDISAT 4              
1 40016U 14033G   26063.01662852  .00001239  00000+0  17007-3 0  9991
2 40016  97.7400 212.8942 0046055  56.7905 303.7710 14.79377629630522
APRIZESAT 9             
1 40018U 14033J   26062.31964085  .00001393  00000+0  21201-3 0  9990
2 40018  97.8869 198.2216 0066394 179.5739 180.5538 14.74055785627966
APRIZESAT 10            
1 40019U 14033K   26062.81608990  .00001116  00000+0  18307-3 0  9992
2 40019  97.9469 192.2387 0077748 249.9317 109.3509 14.70739322626762
TECHDEMOSAT-1 (TDS-1)   
1 40076U 14037H   26062.83193320  .00015512  00000+0  92110-3 0  9996
2 40076  98.3763  44.7871 0004672 264.6647  95.4047 15.11414410632305
TECHNOSAT               
1 42829U 17042E   26062.90704929  .00006039  00000+0  43677-3 0  9992
2 42829  97.4143 224.6994 0019666  93.8219 266.5257 15.04225181470879
FLYING LAPTOP           
1 42831U 17042G   26063.17637476  .00004272  00000+0  34263-3 0  9995
2 42831  97.4250 223.0967 0018555 113.2625 247.0555 15.00470699470707
HAWK-A                  
1 43765U 18099H   26063.09227090  .00011349  00000+0  47580-3 0  9992
2 43765  97.4064 116.7331 0034467 296.1303  63.6389 15.23122659397096
HAWK-B                  
1 43794U 18099AN  26063.12376815  .00009588  00000+0  42410-3 0  9997
2 43794  97.4113 116.3896 0031704 313.9307  45.9313 15.21434136397058
HAWK-C                  
1 43799U 18099AT  26063.10018013  .00013265  00000+0  50199-3 0  9993
2 43799  97.4040 117.1589 0040629 297.9203  61.7924 15.26279019397878
SALSAT                  
1 46495U 20068K   26062.77970162  .00012684  00000+0  46597-3 0  9993
2 46495  97.8847  59.5668 0008731 321.6728  38.3888 15.28039347299257
HAWK-2C                 
1 47502U 21006CT  26063.12852110  .00010178  00000+0  31955-3 0  9996
2 47502  97.2423 109.5609 0006343 204.8100 155.2838 15.33187058283396
HAWK-2A                 
1 47505U 21006CW  26063.13209727  .00012905  00000+0  40419-3 0  9995
2 47505  97.2467 110.1797 0005887 208.0476 152.0450 15.33207120283395
HAWK-2B                 
1 47508U 21006CZ  26063.06360023  .00010416  00000+0  32703-3 0  9999
2 47508  97.2340 108.6207 0006500 206.5248 153.5663 15.33178040283388
HAWK-3B                 
1 48931U 21059BE  26063.03811865  .00048730  00000+0  57813-3 0  9999
2 48931  97.6710 250.4554 0005390 359.9778   0.1477 15.61050876261408
HAWK-3C                 
1 48948U 21059BX  26063.03788624  .00050523  00000+0  59901-3 0  9996
2 48948  97.6859 255.9430 0006056 359.8702   0.2552 15.61055146261409
HAWK-3A                 
1 48957U 21059CG  26063.10181472  .00050173  00000+0  59481-3 0  9996
2 48957  97.6797 253.3059 0005488 359.4965   0.6285 15.61062499261411
HAWK-5C                 
1 52754U 22057Y   26063.16288744  .00030131  00000+0  59208-3 0  9990
2 52754  97.6446 216.4826 0005668  94.2190 265.9707 15.47236690210080
HAWK-5B                 
1 52756U 22057AA  26063.16275739  .00029799  00000+0  58559-3 0  9998
2 52756  97.6445 214.8221 0005645  88.8148 271.3748 15.47238049210085
HAWK-5A                 
1 52757U 22057AB  26063.16247818  .00030406  00000+0  59740-3 0  9996
2 52757  97.6448 215.6562 0006042  90.8681 269.3260 15.47236384210089
HAWK-6B                 
1 55324U 23011A   26062.70145932  .00008331  00000+0  36733-3 0  9992
2 55324  40.5117 246.8438 0002968 345.8045  14.2680 15.21808026171764
HAWK-6C                 
1 55326U 23011C   26062.89773161  .00008782  00000+0  38672-3 0  9999
2 55326  40.4820 242.5819 0003324 333.4900  26.5738 15.21805010171807
HAWK-6A                 
1 55327U 23011D   26062.70087345  .00008566  00000+0  37749-3 0  9996
2 55327  40.4971 245.3291 0003032 330.8809  29.1830 15.21805084171774
HAWK-7A                 
1 56191U 23054P   26063.11602020  .00009883  00000+0  38515-3 0  9997
2 56191  97.2847 313.1260 0004489  62.0858 298.0835 15.26148140160993
HAWK-7B                 
1 56193U 23054R   26062.78806409  .00008997  00000+0  35099-3 0  9997
2 56193  97.2879 311.0305 0003954  72.8474 287.3197 15.26143514160943
HAWK-7C                 
1 56200U 23054Y   26063.11578811  .00009679  00000+0  37771-3 0  9994
2 56200  97.2850 312.1532 0003969  63.9772 296.1875 15.26110098160990
